IRIDIUM 136             
1 42962U 17061H   24246.42951104  .00000741  00000+0  25731-3 0  9994
2 42962  86.3954 298.0391 0002323  87.4896 272.6566 14.34224637361273
